start=new Date('2022-02-22T00:00:00.000Z').valueOf();
sats=[{"GP_ID":"196571504","OBJECT_NAME":"STARLINK-2384","REV_AT_EPOCH":"5428","LAUNCH_DATE":"2021-03-11","ELEMENT_SET_NO":"999","MEAN_ANOMALY":"308.5402","TIME_SYSTEM":"UTC","OBJECT_ID":"2021-018S","SEMIMAJOR_AXIS":"6925.343","TLE_LINE1":"1 47803U 21018S   22052.88313187  .00001278  00000-0  10469-3 0  9995","SITE":"AFETR","ARG_OF_PERICENTER":"51.5742","APOAPSIS":"548.407","EPHEMERIS_TYPE":"0","CLASSIFICATION_TYPE":"U","BSTAR":"0.00010469000000","DECAY_DATE":null,"NORAD_CAT_ID":"47803","MEAN_MOTION_DDOT":"0.0000000000000","ECCENTRICITY":"0.00017320","OBJECT_TYPE":"PAYLOAD","REF_FRAME":"TEME","PERIAPSIS":"546.008","MEAN_MOTION":"15.06401855","PERIOD":"95.592","EPOCH":"2022-02-21T21:11:42.593568","RCS_SIZE":"LARGE","TLE_LINE2":"2 47803  53.0560  21.2654 0001732  51.5742 308.5402 15.06401855 54286","CENTER_NAME":"EARTH","COUNTRY_CODE":"US","MEAN_MOTION_DOT":"0.00001278","RA_OF_ASC_NODE":"21.2654","FILE":"3312023","INCLINATION":"53.0560","MEAN_ELEMENT_THEORY":"SGP4"},{"RA_OF_ASC_NODE":"22.3854","MEAN_MOTION_DOT":"0.00000317","MEAN_ELEMENT_THEORY":"SGP4","INCLINATION":"53.0569","FILE":"3312023","CENTER_NAME":"EARTH","COUNTRY_CODE":"US","TLE_LINE2":"2 47804  53.0569  22.3854 0001642  58.0453 302.0695 15.06396019 54245","RCS_SIZE":"LARGE","EPOCH":"2022-02-21T15:10:47.816832","PERIOD":"95.592","MEAN_MOTION":"15.06396019","ECCENTRICITY":"0.00016420","MEAN_MOTION_DDOT":"0.0000000000000","PERIAPSIS":"546.089","OBJECT_TYPE":"PAYLOAD","REF_FRAME":"TEME","ARG_OF_PERICENTER":"58.0453","SITE":"AFETR","TLE_LINE1":"1 47804U 21018T   22052.63249788  .00000317  00000-0  40156-4 0  9994","DECAY_DATE":null,"NORAD_CAT_ID":"47804","CLASSIFICATION_TYPE":"U","BSTAR":"0.00004015600000","APOAPSIS":"548.363","EPHEMERIS_TYPE":"0","ELEMENT_SET_NO":"999","LAUNCH_DATE":"2021-03-11","OBJECT_NAME":"STARLINK-2385","REV_AT_EPOCH":"5424","SEMIMAJOR_AXIS":"6925.361","TIME_SYSTEM":"UTC","OBJECT_ID":"2021-018T","MEAN_ANOMALY":"302.0695","GP_ID":"196571753"},{"GP_ID":"196573003","TIME_SYSTEM":"UTC","OBJECT_ID":"2021-018U","SEMIMAJOR_AXIS":"6925.373","MEAN_ANOMALY":"305.1888","ELEMENT_SET_NO":"999","OBJECT_NAME":"STARLINK-2386","REV_AT_EPOCH":"5429","LAUNCH_DATE":"2021-03-11","CLASSIFICATION_TYPE":"U","BSTAR":"-0.00000922730000","NORAD_CAT_ID":"47805","DECAY_DATE":null,"APOAPSIS":"548.385","EPHEMERIS_TYPE":"0","ARG_OF_PERICENTER":"54.9256","TLE_LINE1":"1 47805U 21018U   22052.90799476 -.00000419  00000-0 -92273-5 0  9992","SITE":"AFETR","PERIAPSIS":"546.091","OBJECT_TYPE":"PAYLOAD","REF_FRAME":"TEME","ECCENTRICITY":"0.00016560","MEAN_MOTION_DDOT":"0.0000000000000","MEAN_MOTION":"15.06391944","EPOCH":"2022-02-21T21:47:30.747264","PERIOD":"95.593","RCS_SIZE":"LARGE","COUNTRY_CODE":"US","CENTER_NAME":"EARTH","TLE_LINE2":"2 47805  53.0564  21.1422 0001656  54.9256 305.1888 15.06391944 54295","MEAN_ELEMENT_THEORY":"SGP4","FILE":"3312023","INCLINATION":"53.0564","MEAN_MOTION_DOT":"-0.00000419","RA_OF_ASC_NODE":"21.1422"},{"GP_ID":"196573258","MEAN_ANOMALY":"305.5889","SEMIMAJOR_AXIS":"6925.342","OBJECT_ID":"2021-018V","TIME_SYSTEM":"UTC","LAUNCH_DATE":"2021-03-11","OBJECT_NAME":"STARLINK-2387","REV_AT_EPOCH":"5410","ELEMENT_SET_NO":"999","EPHEMERIS_TYPE":"0","APOAPSIS":"548.630","NORAD_CAT_ID":"47806","DECAY_DATE":null,"BSTAR":"0.00016231000000","CLASSIFICATION_TYPE":"U","TLE_LINE1":"1 47806U 21018V   22052.66887101  .00002137  00000-0  16231-3 0  9994","SITE":"AFETR","ARG_OF_PERICENTER":"54.5291","REF_FRAME":"TEME","OBJECT_TYPE":"PAYLOAD","PERIAPSIS":"545.785","MEAN_MOTION_DDOT":"0.0000000000000","ECCENTRICITY":"0.00020540","PERIOD":"95.592","EPOCH":"2022-02-21T16:03:10.455264","MEAN_MOTION":"15.06402051","RCS_SIZE":"LARGE","TLE_LINE2":"2 47806  53.0546  37.2254 0002054  54.5291 305.5889 15.06402051 54102","CENTER_NAME":"EARTH","COUNTRY_CODE":"US","INCLINATION":"53.0546","FILE":"3312023","MEAN_ELEMENT_THEORY":"SGP4","RA_OF_ASC_NODE":"37.2254","MEAN_MOTION_DOT":"0.00002137"},{"MEAN_ELEMENT_THEORY":"SGP4","INCLINATION":"53.0572","FILE":"3312023","RA_OF_ASC_NODE":"11.3689","MEAN_MOTION_DOT":"0.00001376","COUNTRY_CODE":"US","CENTER_NAME":"EARTH","TLE_LINE2":"2 47807  53.0572  11.3689 0002042  52.0657 308.0516 15.06392727 54410","RCS_SIZE":"LARGE","PERIOD":"95.593","EPOCH":"2022-02-21T20:35:54.031200","MEAN_MOTION":"15.06392727","PERIAPSIS":"545.822","OBJECT_TYPE":"PAYLOAD","REF_FRAME":"TEME","ECCENTRICITY":"0.00020420","MEAN_MOTION_DDOT":"0.0000000000000","NORAD_CAT_ID":"47807","DECAY_DATE":null,"CLASSIFICATION_TYPE":"U","BSTAR":"0.00011131000000","APOAPSIS":"548.650","EPHEMERIS_TYPE":"0","ARG_OF_PERICENTER":"52.0657","TLE_LINE1":"1 47807U 21018W   22052.85826425  .00001376  00000-0  11131-3 0  9996","SITE":"AFETR","SEMIMAJOR_AXIS":"6925.371","TIME_SYSTEM":"UTC","OBJECT_ID":"2021-018W","MEAN_ANOMALY":"308.0516","ELEMENT_SET_NO":"999","LAUNCH_DATE":"2021-03-11","OBJECT_NAME":"STARLINK-2388","REV_AT_EPOCH":"5441","GP_ID":"196572005"},{"TLE_LINE1":"1 47808U 21018X   22052.75459670 -.00000954  00000-0 -45185-4 0  9990","SITE":"AFETR","ARG_OF_PERICENTER":"57.9604","APOAPSIS":"548.455","EPHEMERIS_TYPE":"0","CLASSIFICATION_TYPE":"U","BSTAR":"-0.00004518500000","DECAY_DATE":null,"NORAD_CAT_ID":"47808","MEAN_MOTION_DDOT":"0.0000000000000","ECCENTRICITY":"0.00017610","OBJECT_TYPE":"PAYLOAD","REF_FRAME":"TEME","PERIAPSIS":"546.015","GP_ID":"196572254","OBJECT_NAME":"STARLINK-2389","REV_AT_EPOCH":"5411","LAUNCH_DATE":"2021-03-11","ELEMENT_SET_NO":"999","MEAN_ANOMALY":"302.1556","TIME_SYSTEM":"UTC","OBJECT_ID":"2021-018X","SEMIMAJOR_AXIS":"6925.370","TLE_LINE2":"2 47808  53.0560  36.8554 0001761  57.9604 302.1556 15.06393000 54115","COUNTRY_CODE":"US","CENTER_NAME":"EARTH","MEAN_MOTION_DOT":"-0.00000954","RA_OF_ASC_NODE":"36.8554","FILE":"3312023","INCLINATION":"53.0560","MEAN_ELEMENT_THEORY":"SGP4","MEAN_MOTION":"15.06393000","EPOCH":"2022-02-21T18:06:37.154880","PERIOD":"95.593","RCS_SIZE":"LARGE"},{"RCS_SIZE":"LARGE","MEAN_MOTION":"15.06380525","PERIOD":"95.593","EPOCH":"2022-02-21T16:38:23.292960","FILE":"3312023","INCLINATION":"53.0554","MEAN_ELEMENT_THEORY":"SGP4","MEAN_MOTION_DOT":"0.00002990","RA_OF_ASC_NODE":"42.1069","TLE_LINE2":"2 47809  53.0554  42.1069 0001628  66.6193 293.4967 15.06380525 54039","COUNTRY_CODE":"US","CENTER_NAME":"EARTH","MEAN_ANOMALY":"293.4967","OBJECT_ID":"2021-018Y","TIME_SYSTEM":"UTC","SEMIMAJOR_AXIS":"6925.408","REV_AT_EPOCH":"5403","OBJECT_NAME":"STARLINK-2390","LAUNCH_DATE":"2021-03-11","ELEMENT_SET_NO":"999","GP_ID":"196572503","REF_FRAME":"TEME","OBJECT_TYPE":"PAYLOAD","PERIAPSIS":"546.146","MEAN_MOTION_DDOT":"0.0000000000000","ECCENTRICITY":"0.00016280","EPHEMERIS_TYPE":"0","APOAPSIS":"548.401","CLASSIFICATION_TYPE":"U","BSTAR":"0.00021968000000","DECAY_DATE":null,"NORAD_CAT_ID":"47809","SITE":"AFETR","TLE_LINE1":"1 47809U 21018Y   22052.69332515  .00002990  00000-0  21968-3 0  9994","ARG_OF_PERICENTER":"66.6193"},{"MEAN_MOTION":"15.06399868","EPOCH":"2022-02-21T17:14:12.043680","PERIOD":"95.592","RCS_SIZE":"LARGE","TLE_LINE2":"2 47810  53.0554  52.0103 0001570  62.8597 297.2552 15.06399868 53897","CENTER_NAME":"EARTH","COUNTRY_CODE":"US","MEAN_MOTION_DOT":"-0.00000876","RA_OF_ASC_NODE":"52.0103","FILE":"3312023","INCLINATION":"53.0554","MEAN_ELEMENT_THEORY":"SGP4","GP_ID":"196572758","OBJECT_NAME":"STARLINK-2391","REV_AT_EPOCH":"5389","LAUNCH_DATE":"2021-03-11","ELEMENT_SET_NO":"999","MEAN_ANOMALY":"297.2552","OBJECT_ID":"2021-018Z","TIME_SYSTEM":"UTC","SEMIMAJOR_AXIS":"6925.349","TLE_LINE1":"1 47810U 21018Z   22052.71819495 -.00000876  00000-0 -39908-4 0  9993","SITE":"AFETR","ARG_OF_PERICENTER":"62.8597","APOAPSIS":"548.301","EPHEMERIS_TYPE":"0","BSTAR":"-0.00003990800000","CLASSIFICATION_TYPE":"U","DECAY_DATE":null,"NORAD_CAT_ID":"47810","MEAN_MOTION_DDOT":"0.0000000000000","ECCENTRICITY":"0.00015700","OBJECT_TYPE":"PAYLOAD","REF_FRAME":"TEME","PERIAPSIS":"546.127"},{"SEMIMAJOR_AXIS":"6925.365","TIME_SYSTEM":"UTC","OBJECT_ID":"2021-018AA","MEAN_ANOMALY":"300.5647","ELEMENT_SET_NO":"999","LAUNCH_DATE":"2021-03-11","REV_AT_EPOCH":"5430","OBJECT_NAME":"STARLINK-2392","GP_ID":"196571505","PERIAPSIS":"546.076","REF_FRAME":"TEME","OBJECT_TYPE":"PAYLOAD","ECCENTRICITY":"0.00016670","MEAN_MOTION_DDOT":"0.0000000000000","NORAD_CAT_ID":"47811","DECAY_DATE":null,"BSTAR":"0.00005411500000","CLASSIFICATION_TYPE":"U","APOAPSIS":"548.384","EPHEMERIS_TYPE":"0","ARG_OF_PERICENTER":"59.5507","TLE_LINE1":"1 47811U 21018AA  22052.62512754  .00000524  00000-0  54115-4 0  9997","SITE":"AFETR","RCS_SIZE":"LARGE","PERIOD":"95.592","EPOCH":"2022-02-21T15:00:11.019456","MEAN_MOTION":"15.06394647","MEAN_ELEMENT_THEORY":"SGP4","INCLINATION":"53.0567","FILE":"3312023","RA_OF_ASC_NODE":"22.4254","MEAN_MOTION_DOT":"0.00000524","COUNTRY_CODE":"US","CENTER_NAME":"EARTH","TLE_LINE2":"2 47811  53.0567  22.4254 0001667  59.5507 300.5647 15.06394647 54301"},{"RA_OF_ASC_NODE":"51.9507","MEAN_MOTION_DOT":"0.00001004","INCLINATION":"53.0567","FILE":"3312023","MEAN_ELEMENT_THEORY":"SGP4","TLE_LINE2":"2 47812  53.0567  51.9507 0001554  59.5881 300.5261 15.06405401 53830","CENTER_NAME":"EARTH","COUNTRY_CODE":"US","RCS_SIZE":"LARGE","PERIOD":"95.592","EPOCH":"2022-02-21T17:30:06.572736","MEAN_MOTION":"15.06405401","MEAN_MOTION_DDOT":"0.0000000000000","ECCENTRICITY":"0.00015540","OBJECT_TYPE":"PAYLOAD","REF_FRAME":"TEME","PERIAPSIS":"546.121","SITE":"AFETR","TLE_LINE1":"1 47812U 21018AB  22052.72924274  .00001004  00000-0  86295-4 0  9991","ARG_OF_PERICENTER":"59.5881","APOAPSIS":"548.273","EPHEMERIS_TYPE":"0","DECAY_DATE":null,"NORAD_CAT_ID":"47812","BSTAR":"0.00008629500000","CLASSIFICATION_TYPE":"U","LAUNCH_DATE":"2021-03-11","OBJECT_NAME":"STARLINK-2393","REV_AT_EPOCH":"5383","ELEMENT_SET_NO":"999","MEAN_ANOMALY":"300.5261","SEMIMAJOR_AXIS":"6925.332","OBJECT_ID":"2021-018AB","TIME_SYSTEM":"UTC","GP_ID":"196571754"}];
